#dP2022 12 17  0  0  0.00000000      96 __u+U ITR00 EXT  IAC
## 2240 518400.00000000   900.00000000 59930 0.0000000000000
+  117   C06C07C08C09C10C11C12C13C14C16C19C20C21C22C23C24C25
+        C26C27C28C29C30C32C33C34C35C36C37C38C39C40C41C42C43
+        C44C45C46E01E02E03E04E05E07E08E09E10E12E13E14E15E18
+        E19E21E24E25E26E27E30E31E33E34E36G01G02G03G04G05G06
+        G07G08G09G10G11G12G13G14G15G16G17G18G19G20G21G22G23
+        G24G25G26G27G29G30G31G32J02J03J04R01R02R03R04R05R07
+        R08R09R11R12R13R14R15R17R18R19R20R21R22R24R25  0  0
++         8  9 10  8 10  9  9 11  8  8  8  9  9  7  8  7  7
++         7  9  7  9  8  7  9  7  7  8 10 11  9  9  9  9  8
++        10  9  9  7  7  7  7  8  8  7  7  7  7  7  6  7  7
++         9  7  6  6  7  7  7  7  6  7  8  7  8  7  8  8  6
++         6  7  7  7  7  6  7  9  6  7  7  7  7  7  7  6  7
++         7  7  7  7  7  6  7  6 10  9  9  7 10  8  8  8  8
++         9  9  7  8  9  7  8  9  7  8 11  8  9  7  8  0  0
%c M  cc GPS ccc cccc cccc cccc cccc ccccc ccccc ccccc ccccc
%c cc cc ccc ccc cccc cccc cccc cccc ccccc ccccc ccccc ccccc
%f  0.0000000  0.000000000  0.00000000000  0.000000000000000
%f  0.0000000  0.000000000  0.00000000000  0.000000000000000
%i    0    0    0    0      0      0      0      0         0
%i    0    0    0    0      0      0      0      0         0
/* IAC                                ULTRA-RAPID PREDICTION
/* S/V CLOCKS ARE ALIGNED TO GNSS TIME                      
/* G:C1WC2W R:C1PC2P E:C1XC5X C:C2IC6I J:C1CC2S             
/* PCV:IGS20_2233 OL/AL:FES2004  NONE     YN ORB:CoN CLK:CoN
*  2022 12 17  9 30  0.00000000
PC06 -15750.779409  36896.193290  12509.054325    216.768127
PC07  -1262.432301  35437.506412  22968.751001    149.108159
PC08 -10651.230862  19511.302321 -35848.261861    523.265606
PC09 -10333.137528  35658.298020  19852.419356   -780.874660
PC10   4562.704840  37843.044575  18838.493936     49.931532
PC11  -9390.384055 -13650.393793  22524.764512   -231.049196
PC12   4521.487240 -24862.221281  11872.134979    350.380723
PC13  -2781.558541  21907.272018 -35761.079027    160.301248
PC14 -18043.931240 -20409.029459  -5920.670546    274.329607
PC16 -19138.234245  36528.684990   8250.348003     99.978087
PC19  20093.329694  13008.803119  14375.088686   -903.063988
PC20  14120.792931  24022.539353  -1701.078843    802.543597
PC21    901.039863 -21324.188668  17981.353262   -925.558494
PC22  14762.024541  -6004.161579  22903.971554   -735.469809
PC23 -25836.458547   6919.592249   7978.102295   -871.428007
PC24  -9654.107994 -15037.389988 -21458.509260   -663.551213
PC25 -26141.068632  -4465.914467  -8739.270628     40.868634
PC26   9481.240491 -15766.905217 -20988.019988    -51.080853
PC27 -10625.709670  25526.048578  -3742.929485     67.525819
PC28 -18681.565798  16419.930604  12665.561947     48.227330
PC29  16047.374266   3017.505434 -22632.082702     54.885849
PC30   3886.263640  20900.471474 -18069.427334      1.212675
PC32   -795.100705  21294.446973 -18009.188311   -679.917427
PC33 -20169.617422 -12974.920981 -14261.494249   -892.763903
PC34  -4783.147051 -20134.093685  18724.792858     62.995917
PC35  18438.946774 -15663.380909 -13941.175189    137.025723
PC36  25718.317650   5500.397905   9328.078695   -761.490479
PC37 -11397.367767  15229.615182  20435.113467   -878.715992
PC38 -18491.268912  20153.010891 -32121.067304     45.547889
PC39 -19895.044403  36896.872467   3496.917515     -1.096432
PC40  -5539.531800  31550.917036  27525.235221    -10.394515
PC41 -15088.647928   5474.434857 -22780.233474   -389.809668
PC42 -13349.565772 -24320.714542   2975.083476   -867.840882
PC43 -15790.654590  -3985.003724  22654.408001     30.548532
PC44   9838.245021 -25897.267707   3493.701415    147.778322
PC45  25638.405752  -7108.224387  -8375.034553    -35.789541
PC46  11554.712513  14398.990311  20906.842770    -20.148469
PE01  17237.319423  -8221.530928 -22610.785343   -578.450879
PE02 -17013.680374   8422.875358  22714.136778      9.078906
PE03 -12242.671785  19772.080881 -18325.533694   -630.648226
PE04    495.872926 -29523.312560   2111.217592    -15.958421
PE05 -17055.697546  -1851.175402 -24125.633410   -114.251104
PE07  11840.698078  22084.415737  15757.351336     -7.838077
PE08   -455.047466  29519.967612  -2182.838101     -4.099878
PE09 -11705.203467 -22209.417567 -15678.995277   -767.001795
PE10  -2349.162798 -16926.313585  24167.803705   -498.411654
PE12   7812.649634 -20272.840128  20114.344175   -337.505852
PE13  12269.545562  10985.549482 -24585.954671    430.339553
PE14  -2886.508791 -22893.702093   6132.066699     86.992521
PE15  -8118.758130  20286.987721 -19954.835720    700.370161
PE18   9720.734385  26860.168269 -15243.433475   -618.312145
PE19  13364.134156 -17287.678499  19970.481151  -3722.413410
PE21  26887.381271   6116.166240 -10748.656869   -500.836025
PE24 -21277.483796 -18552.111658  -8970.364424  -1006.449468
PE25 -26953.360546  -6365.352172  10473.200100   -595.115646
PE26  25552.691898  -5202.532465 -13990.087160  -1878.904693
PE27  21939.717468  18111.834595   8141.067067   -465.226496
PE30   3241.423822  19175.084832  22299.686786  -1084.883377
PE31  -4150.236270 -19324.830908 -22031.662029   -510.887279
PE33  23562.088139 -17557.126008   3599.690522   -455.382858
PE34 -23458.089613  17668.521099  -3751.519865    -20.058302
PE36 -25233.546806   4634.395252  14769.434126   -476.623632
PG01  -5131.076741  17174.820985 -19787.582602    236.596545
PG02   1138.425643 -17540.225390  20607.578928   -632.573325
PG03   4553.486820  18102.540736 -19060.548257   -375.243497
PG04   -428.250277  26408.891463   2188.026699    -66.943599
PG05  10008.211688 -11526.467654  21571.347106   -108.400251
PG06  23896.877361  -4344.344453 -10773.722896    541.786683
PG07  10923.398288  11751.998388  21643.286615    273.176796
PG08  -6746.511631  23780.394619   9141.846939    -99.064540
PG09   8309.553504  21944.321414  12320.301019   -252.077059
PG10 -23823.418653 -10941.506216  -5052.743431    -16.465268
PG11  23627.346524 -12000.564520   1475.060411    -58.720568
PG12  -2141.124458 -18245.610483 -19493.291875   -316.948092
PG13  12950.822460 -18325.959780  13882.837719    443.419387
PG14  23044.756934  12951.921608  -3165.921919    -66.686544
PG15   3806.932439 -24651.928688   8256.675755     -3.369650
PG16 -14829.911390   6713.172333  20791.163144   -525.992403
PG17  12759.469643  10474.139925 -20347.265041    686.571482
PG18 -12827.489807  -9695.723401  21169.297067    -62.366224
PG19  15260.002394  -2011.209796 -21847.187036    251.651933
PG20  20288.685689  -4320.375372  16484.376054    463.029725
PG21 -12747.613148  18648.263428 -12711.401259    153.633938
PG22 -15165.322088   5760.804700 -20572.523948    386.476382
PG23 -20139.951267 -16464.975681   5718.921298      0.245651
PG24   7857.161272 -19425.299336 -16415.018580     11.853593
PG25 -12808.471466 -19245.231442 -13624.173212    402.824247
PG26 -22803.678335   -921.786404  13758.624830    238.569759
PG27 -12539.755084  15116.162934  17458.736384    150.968193
PG29  -4594.747378 -23744.555871  10843.461924   -574.586485
PG30  20876.257086   2925.852315  16397.025721   -535.244155
PG31 -24707.031861   4936.968726  -9268.174593   -203.526570
PG32 -14546.146243  -6859.003044 -21016.480170   -332.609369
PJ02 -27574.105859  21091.290394  28967.996825     -0.339021
PJ03 -33090.818397  26027.791217   6572.842917     -6.865264
PJ04 -21628.509696  23773.239519 -22144.567035    115.453883
PR01  -8419.898686   7923.767710 -22740.893820     19.693816
PR02   2517.854688  22065.298672 -12444.749472    -23.385317
PR03  11507.104184  22237.716490   4736.685311     69.222714
PR04  13646.100043  10238.245449  18980.043653    168.922464
PR05   8518.317297  -7421.647216  22878.722343    104.680221
PR07 -11720.908449 -22032.658766  -5382.247999     46.253810
PR08 -13760.307197 -10078.753383 -18928.517125    -68.577437
PR09   3084.194473 -11004.743654 -22792.855586     93.483248
PR11 -24914.241040  -4478.024939  -3090.755574     14.219771
PR12 -20142.863561   4620.680352  14988.475219     23.682079
PR13  -4891.122214  10411.306591  22748.946673    -30.019922
PR14  15382.089236  10458.888778  17468.592806     24.100390
PR15  25063.589425   4284.073106   2039.621321     92.296702
PR17   2609.592625  12812.594654 -21894.839611    587.693512
PR18  13763.497955  -1839.855047 -21387.396896     57.233940
PR19  18241.729734 -14070.204936 -10938.686235   -214.883167
PR20  11813.288318 -20510.140331   9576.516219    -84.147142
PR21  -3804.951763 -11483.262351  22459.441173   -358.148559
PR22 -14495.725366   1720.543946  20946.011559     19.158511
PR24 -10639.250307  20899.048508 -10031.733381    133.344771
PR25  -1940.611589 -13354.271990  21651.325242     49.116127
EOF
